[{"OBJECT_NAME":"OBJECT C","OBJECT_ID":"2024-094C","EPOCH":"2026-03-09T23:40:22.800864","MEAN_MOTION":15.16350553,"ECCENTRICITY":0.0005615,"INCLINATION":97.3999,"RA_OF_ASC_NODE":142.6319,"ARG_OF_PERICENTER":209.4203,"MEAN_ANOMALY":150.6715,"EPHEMERIS_TYPE":0,"CLASSIFICATION_TYPE":"U","NORAD_CAT_ID":59807,"ELEMENT_SET_NO":999,"REV_AT_EPOCH":10012,"BSTAR":0.00045742528,"MEAN_MOTION_DOT":8.815e-5,"MEAN_MOTION_DDOT":0},{"OBJECT_NAME":"OKEAN-2","OBJECT_ID":"1990-018A","EPOCH":"2026-03-09T23:36:10.183680","MEAN_MOTION":15.15649196,"ECCENTRICITY":0.00049727,"INCLINATION":82.5017,"RA_OF_ASC_NODE":331.5686,"ARG_OF_PERICENTER":303.4328,"MEAN_ANOMALY":67.9927,"EPHEMERIS_TYPE":0,"CLASSIFICATION_TYPE":"U","NORAD_CAT_ID":20510,"ELEMENT_SET_NO":999,"REV_AT_EPOCH":93903,"BSTAR":0.00028442133,"MEAN_MOTION_DOT":5.437e-5,"MEAN_MOTION_DDOT":0}]
